start=new Date('2022-01-02T00:00:00.000Z').valueOf();
sats=[{"TIME_SYSTEM":"UTC","BSTAR":"0.00004916400000","PERIOD":"95.592","MEAN_MOTION":"15.06395248","REF_FRAME":"TEME","INCLINATION":"53.0548","ELEMENT_SET_NO":"999","RCS_SIZE":"LARGE","GP_ID":"192866076","CENTER_NAME":"EARTH","ARG_OF_PERICENTER":"90.2819","NORAD_CAT_ID":"45566","TLE_LINE2":"2 45566  53.0548 106.5826 0001400  90.2819 269.8330 15.06395248 95047","MEAN_ANOMALY":"269.8330","MEAN_MOTION_DDOT":"0.0000000000000","EPOCH":"2022-01-01T13:53:47.253696","OBJECT_ID":"2020-025AM","CLASSIFICATION_TYPE":"U","SITE":"AFETR","MEAN_ELEMENT_THEORY":"SGP4","OBJECT_NAME":"STARLINK-1358","ECCENTRICITY":"0.00014000","LAUNCH_DATE":"2020-04-22","SEMIMAJOR_AXIS":"6925.363","FILE":"3255244","OBJECT_TYPE":"PAYLOAD","APOAPSIS":"548.198","COUNTRY_CODE":"US","DECAY_DATE":null,"RA_OF_ASC_NODE":"106.5826","PERIAPSIS":"546.259","REV_AT_EPOCH":"9504","MEAN_MOTION_DOT":"0.00000451","TLE_LINE1":"1 45566U 20025AM  22001.57901914  .00000451  00000-0  49164-4 0  9994","EPHEMERIS_TYPE":"0"},{"SEMIMAJOR_AXIS":"6925.392","FILE":"3255246","OBJECT_TYPE":"PAYLOAD","COUNTRY_CODE":"US","APOAPSIS":"548.167","DECAY_DATE":null,"RA_OF_ASC_NODE":"106.2240","REV_AT_EPOCH":"9506","PERIAPSIS":"546.347","MEAN_MOTION_DOT":"0.00000792","TLE_LINE1":"1 45567U 20025AN  22001.65643148  .00000792  00000-0  72085-4 0  9992","EPHEMERIS_TYPE":"0","SITE":"AFETR","MEAN_ELEMENT_THEORY":"SGP4","OBJECT_NAME":"STARLINK-1361","ECCENTRICITY":"0.00013140","LAUNCH_DATE":"2020-04-22","GP_ID":"192891245","CENTER_NAME":"EARTH","ARG_OF_PERICENTER":"97.4526","NORAD_CAT_ID":"45567","TLE_LINE2":"2 45567  53.0541 106.2240 0001314  97.4526 262.6612 15.06385853 95063","MEAN_ANOMALY":"262.6612","MEAN_MOTION_DDOT":"0.0000000000000","EPOCH":"2022-01-01T15:45:15.679872","OBJECT_ID":"2020-025AN","CLASSIFICATION_TYPE":"U","TIME_SYSTEM":"UTC","BSTAR":"0.00007208500000","PERIOD":"95.593","MEAN_MOTION":"15.06385853","REF_FRAME":"TEME","INCLINATION":"53.0541","ELEMENT_SET_NO":"999","RCS_SIZE":"LARGE"},{"LAUNCH_DATE":"2020-04-22","ECCENTRICITY":"0.00012730","OBJECT_NAME":"STARLINK-1363","SITE":"AFETR","MEAN_ELEMENT_THEORY":"SGP4","TLE_LINE1":"1 45568U 20025AP  22001.64810840  .00000464  00000-0  50035-4 0  9994","EPHEMERIS_TYPE":"0","RA_OF_ASC_NODE":"106.2684","REV_AT_EPOCH":"9505","PERIAPSIS":"546.362","MEAN_MOTION_DOT":"0.00000464","OBJECT_TYPE":"PAYLOAD","APOAPSIS":"548.125","COUNTRY_CODE":"US","DECAY_DATE":null,"SEMIMAJOR_AXIS":"6925.378","FILE":"3255246","ELEMENT_SET_NO":"999","RCS_SIZE":"LARGE","REF_FRAME":"TEME","INCLINATION":"53.0547","MEAN_MOTION":"15.06390268","TIME_SYSTEM":"UTC","BSTAR":"0.00005003500000","PERIOD":"95.593","CLASSIFICATION_TYPE":"U","MEAN_MOTION_DDOT":"0.0000000000000","EPOCH":"2022-01-01T15:33:16.565760","OBJECT_ID":"2020-025AP","NORAD_CAT_ID":"45568","TLE_LINE2":"2 45568  53.0547 106.2684 0001273  98.7181 261.3952 15.06390268 95055","MEAN_ANOMALY":"261.3952","GP_ID":"192891495","CENTER_NAME":"EARTH","ARG_OF_PERICENTER":"98.7181"},{"SEMIMAJOR_AXIS":"6925.217","FILE":"3255244","OBJECT_TYPE":"PAYLOAD","APOAPSIS":"548.160","COUNTRY_CODE":"US","DECAY_DATE":null,"RA_OF_ASC_NODE":"106.5083","REV_AT_EPOCH":"9504","PERIAPSIS":"546.004","MEAN_MOTION_DOT":"-0.00009254","TLE_LINE1":"1 45569U 20025AQ  22001.59374315 -.00009254  00000-0 -60245-3 0  9992","EPHEMERIS_TYPE":"0","SITE":"AFETR","MEAN_ELEMENT_THEORY":"SGP4","OBJECT_NAME":"STARLINK-1366","ECCENTRICITY":"0.00015570","LAUNCH_DATE":"2020-04-22","GP_ID":"192867319","CENTER_NAME":"EARTH","ARG_OF_PERICENTER":"134.6901","NORAD_CAT_ID":"45569","TLE_LINE2":"2 45569  53.0538 106.5083 0001557 134.6901 225.4215 15.06443005 95047","MEAN_ANOMALY":"225.4215","MEAN_MOTION_DDOT":"0.0000000000000","EPOCH":"2022-01-01T14:14:59.408160","OBJECT_ID":"2020-025AQ","CLASSIFICATION_TYPE":"U","TIME_SYSTEM":"UTC","BSTAR":"-0.00060245000000","PERIOD":"95.589","MEAN_MOTION":"15.06443005","REF_FRAME":"TEME","INCLINATION":"53.0538","ELEMENT_SET_NO":"999","RCS_SIZE":"LARGE"},{"TIME_SYSTEM":"UTC","PERIOD":"95.593","BSTAR":"0.00004351300000","MEAN_MOTION":"15.06393997","REF_FRAME":"TEME","INCLINATION":"53.0543","ELEMENT_SET_NO":"999","RCS_SIZE":"LARGE","GP_ID":"192892997","CENTER_NAME":"EARTH","ARG_OF_PERICENTER":"96.5662","NORAD_CAT_ID":"45570","TLE_LINE2":"2 45570  53.0543 105.9447 0001313  96.5662 263.5476 15.06393997 95060","MEAN_ANOMALY":"263.5476","MEAN_MOTION_DDOT":"0.0000000000000","EPOCH":"2022-01-01T17:15:28.964736","OBJECT_ID":"2020-025AR","CLASSIFICATION_TYPE":"U","SITE":"AFETR","MEAN_ELEMENT_THEORY":"SGP4","OBJECT_NAME":"STARLINK-1376","ECCENTRICITY":"0.00013130","LAUNCH_DATE":"2020-04-22","SEMIMAJOR_AXIS":"6925.367","FILE":"3255246","OBJECT_TYPE":"PAYLOAD","COUNTRY_CODE":"US","APOAPSIS":"548.141","DECAY_DATE":null,"RA_OF_ASC_NODE":"105.9447","PERIAPSIS":"546.323","REV_AT_EPOCH":"9506","MEAN_MOTION_DOT":"0.00000367","TLE_LINE1":"1 45570U 20025AR  22001.71908524  .00000367  00000-0  43513-4 0  9997","EPHEMERIS_TYPE":"0"},{"MEAN_ELEMENT_THEORY":"SGP4","SITE":"AFETR","OBJECT_NAME":"STARLINK-1261","ECCENTRICITY":"0.00013090","LAUNCH_DATE":"2020-04-22","FILE":"3255244","SEMIMAJOR_AXIS":"6925.388","DECAY_DATE":null,"COUNTRY_CODE":"US","APOAPSIS":"548.160","OBJECT_TYPE":"PAYLOAD","MEAN_MOTION_DOT":"0.00001421","PERIAPSIS":"546.347","REV_AT_EPOCH":"9519","RA_OF_ASC_NODE":"96.7797","EPHEMERIS_TYPE":"0","TLE_LINE1":"1 45571U 20025AS  22001.53571948  .00001421  00000-0  11430-3 0  9998","PERIOD":"95.593","BSTAR":"0.00011430000000","TIME_SYSTEM":"UTC","MEAN_MOTION":"15.06386989","INCLINATION":"53.0546","REF_FRAME":"TEME","RCS_SIZE":"LARGE","ELEMENT_SET_NO":"999","ARG_OF_PERICENTER":"85.8283","CENTER_NAME":"EARTH","GP_ID":"192866827","MEAN_ANOMALY":"274.2856","TLE_LINE2":"2 45571  53.0546  96.7797 0001309  85.8283 274.2856 15.06386989 95192","NORAD_CAT_ID":"45571","OBJECT_ID":"2020-025AS","EPOCH":"2022-01-01T12:51:26.163072","MEAN_MOTION_DDOT":"0.0000000000000","CLASSIFICATION_TYPE":"U"},{"PERIOD":"95.593","BSTAR":"0.00007574200000","TIME_SYSTEM":"UTC","MEAN_MOTION":"15.06391594","REF_FRAME":"TEME","INCLINATION":"53.0553","ELEMENT_SET_NO":"999","RCS_SIZE":"LARGE","CENTER_NAME":"EARTH","GP_ID":"192891995","ARG_OF_PERICENTER":"102.7285","NORAD_CAT_ID":"45572","MEAN_ANOMALY":"257.3831","TLE_LINE2":"2 45572  53.0553  96.8137 0001134 102.7285 257.3831 15.06391594 95189","EPOCH":"2022-01-01T12:40:48.683136","MEAN_MOTION_DDOT":"0.0000000000000","OBJECT_ID":"2020-025AT","CLASSIFICATION_TYPE":"U","SITE":"AFETR","MEAN_ELEMENT_THEORY":"SGP4","OBJECT_NAME":"STARLINK-1320","ECCENTRICITY":"0.00011340","LAUNCH_DATE":"2020-04-22","SEMIMAJOR_AXIS":"6925.374","FILE":"3255246","APOAPSIS":"548.025","COUNTRY_CODE":"US","OBJECT_TYPE":"PAYLOAD","DECAY_DATE":null,"RA_OF_ASC_NODE":"96.8137","MEAN_MOTION_DOT":"0.00000847","REV_AT_EPOCH":"9518","PERIAPSIS":"546.454","TLE_LINE1":"1 45572U 20025AT  22001.52834124  .00000847  00000-0  75742-4 0  9994","EPHEMERIS_TYPE":"0"},{"TLE_LINE1":"1 45573U 20025AU  22001.63892375  .00001616  00000-0  12738-3 0  9999","EPHEMERIS_TYPE":"0","RA_OF_ASC_NODE":"96.3099","MEAN_MOTION_DOT":"0.00001616","REV_AT_EPOCH":"9489","PERIAPSIS":"546.242","APOAPSIS":"548.231","COUNTRY_CODE":"US","OBJECT_TYPE":"PAYLOAD","DECAY_DATE":null,"SEMIMAJOR_AXIS":"6925.372","FILE":"3255246","LAUNCH_DATE":"2020-04-22","ECCENTRICITY":"0.00014360","OBJECT_NAME":"STARLINK-1321","SITE":"AFETR","MEAN_ELEMENT_THEORY":"SGP4","CLASSIFICATION_TYPE":"U","EPOCH":"2022-01-01T15:20:03.012000","MEAN_MOTION_DDOT":"0.0000000000000","OBJECT_ID":"2020-025AU","NORAD_CAT_ID":"45573","MEAN_ANOMALY":"282.5327","TLE_LINE2":"2 45573  53.0549  96.3099 0001436  77.5822 282.5327 15.06392391 94891","CENTER_NAME":"EARTH","GP_ID":"192892747","ARG_OF_PERICENTER":"77.5822","ELEMENT_SET_NO":"999","RCS_SIZE":"LARGE","REF_FRAME":"TEME","INCLINATION":"53.0549","MEAN_MOTION":"15.06392391","BSTAR":"0.00012738000000","PERIOD":"95.593","TIME_SYSTEM":"UTC"},{"TLE_LINE2":"2 45574  53.0553  95.8999 0001441  83.5825 276.5328 15.06388485 95227","MEAN_ANOMALY":"276.5328","NORAD_CAT_ID":"45574","ARG_OF_PERICENTER":"83.5825","GP_ID":"192892498","CENTER_NAME":"EARTH","CLASSIFICATION_TYPE":"U","OBJECT_ID":"2020-025AV","MEAN_MOTION_DDOT":"0.0000000000000","EPOCH":"2022-01-01T17:32:44.576736","MEAN_MOTION":"15.06388485","TIME_SYSTEM":"UTC","PERIOD":"95.593","BSTAR":"0.00008362000000","RCS_SIZE":"LARGE","ELEMENT_SET_NO":"999","INCLINATION":"53.0553","REF_FRAME":"TEME","DECAY_DATE":null,"OBJECT_TYPE":"PAYLOAD","COUNTRY_CODE":"US","APOAPSIS":"548.247","FILE":"3255246","SEMIMAJOR_AXIS":"6925.384","EPHEMERIS_TYPE":"0","TLE_LINE1":"1 45574U 20025AV  22001.73107149  .00000964  00000-0  83620-4 0  9993","REV_AT_EPOCH":"9522","PERIAPSIS":"546.251","MEAN_MOTION_DOT":"0.00000964","RA_OF_ASC_NODE":"95.8999","OBJECT_NAME":"STARLINK-1324","MEAN_ELEMENT_THEORY":"SGP4","SITE":"AFETR","LAUNCH_DATE":"2020-04-22","ECCENTRICITY":"0.00014410"},{"INCLINATION":"53.0016","REF_FRAME":"TEME","RCS_SIZE":"LARGE","ELEMENT_SET_NO":"999","PERIOD":"95.417","BSTAR":"0.00051416000000","TIME_SYSTEM":"UTC","MEAN_MOTION":"15.09167519","OBJECT_ID":"2020-025AW","EPOCH":"2022-01-01T15:42:56.726208","MEAN_MOTION_DDOT":"0.0000000000000","CLASSIFICATION_TYPE":"U","ARG_OF_PERICENTER":"88.9442","CENTER_NAME":"EARTH","GP_ID":"192891246","MEAN_ANOMALY":"271.1715","TLE_LINE2":"2 45575  53.0016  91.3704 0001466  88.9442 271.1715 15.09167519 95258","NORAD_CAT_ID":"45575","ECCENTRICITY":"0.00014660","LAUNCH_DATE":"2020-04-22","MEAN_ELEMENT_THEORY":"SGP4","SITE":"AFETR","OBJECT_NAME":"STARLINK-1326","MEAN_MOTION_DOT":"0.00007978","REV_AT_EPOCH":"9525","PERIAPSIS":"537.730","RA_OF_ASC_NODE":"91.3704","EPHEMERIS_TYPE":"0","TLE_LINE1":"1 45575U 20025AW  22001.65482322  .00007978  00000-0  51416-3 0  9993","FILE":"3255246","SEMIMAJOR_AXIS":"6916.879","DECAY_DATE":null,"COUNTRY_CODE":"US","APOAPSIS":"539.758","OBJECT_TYPE":"PAYLOAD"}];
